OBJECT_NAME,OBJECT_ID,EPOCH,MEAN_MOTION,ECCENTRICITY,INCLINATION,RA_OF_ASC_NODE,ARG_OF_PERICENTER,MEAN_ANOMALY,EPHEMERIS_TYPE,CLASSIFICATION_TYPE,NORAD_CAT_ID,ELEMENT_SET_NO,REV_AT_EPOCH,BSTAR,MEAN_MOTION_DOT,MEAN_MOTION_DDOT
LAOSAT 1,2015-067A,2026-07-09T15:58:29.681184,1.00271326,.0002308,0.0409,185.2846,233.1875,237.2751,0,U,41034,999,3908,0,-.33E-5,0
TELSTAR 12V,2015-068A,2026-07-09T18:42:47.833920,1.00272067,.0002138,0.0125,316.4246,160.0137,76.9821,0,U,41036,999,3885,0,-.106E-5,0
ELEKTRO-L 2,2015-074A,2026-07-08T10:12:33.980256,1.00273098,.00006934,6.7437,70.2631,230.4230,124.3160,0,U,41105,999,3871,0,-.107E-5,0
COSMOS 2513,2015-075A,2026-07-09T20:52:43.222944,1.00271733,.0002802,0.0630,106.2293,339.8712,235.1302,0,U,41121,999,3877,0,-.126E-5,0
EXPRESS-AMU1,2015-082A,2026-07-09T18:57:20.448864,1.00270937,.0002361,0.0185,43.5095,73.6779,130.9504,0,U,41191,999,3849,0,.168E-5,0
GAOFEN-4,2015-083A,2026-07-09T20:59:55.807872,1.00269886,.0004411,0.4123,83.8847,119.3271,145.2763,0,U,41194,999,3875,0,-.323E-5,0
BELINTERSAT-1,2016-001A,2026-07-09T17:02:38.694048,1.00272256,.0001778,0.0256,96.2544,337.4751,161.0565,0,U,41238,999,3846,0,.119E-5,0
IRNSS-1E,2016-003A,2026-07-08T18:55:39.347904,1.00268624,.001924,33.2798,59.4366,178.8165,84.1076,0,U,41241,999,3829,0,-.309E-5,0
EUTELSAT 9B,2016-005A,2026-07-09T18:49:38.679744,1.00269013,.0001127,0.0235,45.2153,48.8612,125.0591,0,U,41310,999,3834,0,.74E-6,0
SES-9,2016-013A,2026-07-09T18:14:38.681952,1.00267019,.0002209,0.0162,327.9050,145.2687,196.4796,0,U,41380,999,3766,0,-.332E-5,0
EUTELSAT 65 WEST A,2016-014A,2026-07-09T20:11:11.649120,1.00271287,.0002089,0.0695,312.6625,157.5803,55.1503,0,U,41382,999,3775,0,-.264E-5,0
IRNSS-1F,2016-015A,2026-07-09T18:56:28.034304,1.00278591,.0017393,5.4039,96.2682,183.5069,324.6440,0,U,41384,999,3789,0,.165E-5,0
BEIDOU-2 IGSO-6,2016-021A,2026-06-26T02:38:38.671584,1.00258926,.0057558,60.2385,37.9495,231.0163,137.2672,0,U,41434,999,3757,0,-.145E-5,0
IRNSS-1G,2016-027A,2026-07-09T15:58:44.656032,1.00273920,.0005966,5.2494,96.9535,9.2807,190.7095,0,U,41469,999,3740,0,-.326E-5,0
JCSAT-2B,2016-028A,2026-07-09T19:31:03.222336,1.00269787,.0000817,0.0183,32.9167,82.9960,258.5988,0,U,41471,999,3735,0,-.153E-5,0
THAICOM 8,2016-031A,2026-07-09T18:22:38.406720,1.00270867,.0003096,0.0647,42.1401,30.4984,209.2152,0,U,41552,999,3694,0,-.109E-5,0
INTELSAT 31 (IS-31),2016-035A,2026-07-09T13:12:04.230144,1.00269863,.0001069,0.0203,274.2843,6.7163,109.4498,0,U,41581,999,3690,0,-.138E-5,0
BEIDOU-2 G7,2016-037A,2026-07-09T15:53:15.184320,1.00264599,.0006074,1.7726,69.5133,6.8145,199.9992,0,U,41586,999,711,0,-.341E-5,0
ABS-2A (MONGOLSAT-1),2016-038A,2026-07-09T18:22:38.406720,1.00268447,.000113,0.0216,21.8686,52.1405,204.0610,0,U,41588,999,3693,0,0,0
EUTELSAT 117 WEST B,2016-038B,2026-07-09T13:05:49.826976,1.00275906,.0000483,0.0047,194.6561,271.3909,260.8989,0,U,41589,999,3688,0,.1E-7,0
BRISAT,2016-039A,2026-07-09T04:32:38.772960,1.00270702,.0001924,0.0181,9.7163,99.1174,36.9619,0,U,41591,999,3683,0,0,0
ECHOSTAR 18,2016-039B,2026-07-09T20:12:19.041120,1.00271087,.0001364,0.0027,94.7555,24.3932,50.3448,0,U,41592,999,3685,0,-.27E-5,0
MUOS-5,2016-041A,2026-07-09T14:51:33.066144,1.00271571,.0199227,2.1575,302.0753,260.6431,202.5771,0,U,41622,999,3731,0,-.101E-5,0
TIANTONG-1 1,2016-048A,2026-07-09T00:26:50.624736,1.00271854,.00050908,3.8892,43.5702,55.7563,295.7516,0,U,41725,999,3648,0,-.306E-5,0
JCSAT-16,2016-050A,2026-07-09T19:28:10.996032,1.00269753,.0000876,0.0193,32.5455,90.8261,240.3645,0,U,41729,999,3629,0,-.239E-5,0
USA 270,2016-052A,2026-07-08T10:52:44.133312,1.00271003,.0009267,4.2508,76.9127,101.4411,37.4334,0,U,41744,999,2834,0,-.339E-5,0
USA 271,2016-052B,2026-07-07T17:38:01.230144,1.00271212,.0010955,4.2217,76.9947,166.6184,44.5685,0,U,41745,999,2812,0,-.278E-5,0
INTELSAT 36 (IS-36),2016-053A,2026-07-07T19:12:15.204672,1.00285795,.00009753,0.0091,10.2892,27.8198,244.1989,0,U,41747,999,3616,0,-.12E-6,0
INSAT-3DR,2016-054A,2026-07-09T18:22:38.406720,1.00272040,.0010561,0.0554,89.0522,181.4566,6.8521,0,U,41752,999,3604,0,-.65E-6,0
GSAT-18,2016-060A,2026-07-09T18:22:38.406720,1.00271174,.0005363,0.0209,88.6060,348.7744,199.9470,0,U,41793,999,3575,0,-.64E-6,0
SKY MUSTER 2 (NBN1B),2016-060B,2026-07-09T16:03:06.738336,1.00268632,.0001367,0.0227,23.9157,96.5526,192.7015,0,U,41794,999,3574,0,0,0
HIMAWARI-9,2016-064A,2026-07-09T19:27:18.579744,1.00271151,.0002189,0.0222,38.2950,137.7770,184.2635,0,U,41836,999,3543,0,0,0
