LAOSAT 1                
1 41034U 15067A   26190.66562131 -.00000330  00000+0  00000+0 0  9994
2 41034   0.0409 185.2846 0002308 233.1875 237.2751  1.00271326 39082
TELSTAR 12V             
1 41036U 15068A   26190.77972030 -.00000106  00000+0  00000+0 0  9993
2 41036   0.0125 316.4246 0002138 160.0137  76.9821  1.00272067 38854
ELEKTRO-L 2             
1 41105U 15074A   26189.42539329 -.00000107  00000+0  00000+0 0  9998
2 41105   6.7437  70.2631 0000693 230.4230 124.3160  1.00273098 38717
COSMOS 2513             
1 41121U 15075A   26190.86994471 -.00000126  00000+0  00000+0 0  9991
2 41121   0.0630 106.2293 0002802 339.8712 235.1302  1.00271733 38773
EXPRESS-AMU1            
1 41191U 15082A   26190.78982001  .00000168  00000+0  00000+0 0  9998
2 41191   0.0185  43.5095 0002361  73.6779 130.9504  1.00270937 38494
GAOFEN-4                
1 41194U 15083A   26190.87495148 -.00000323  00000+0  00000+0 0  9997
2 41194   0.4123  83.8847 0004411 119.3271 145.2763  1.00269886 38754
BELINTERSAT-1           
1 41238U 16001A   26190.71017007  .00000119  00000+0  00000+0 0  9996
2 41238   0.0256  96.2544 0001778 337.4751 161.0565  1.00272256 38466
IRNSS-1E                
1 41241U 16003A   26189.78864986 -.00000309  00000+0  00000+0 0  9995
2 41241  33.2798  59.4366 0019240 178.8165  84.1076  1.00268624 38298
EUTELSAT 9B             
1 41310U 16005A   26190.78447546  .00000074  00000+0  00000+0 0  9993
2 41310   0.0235  45.2153 0001127  48.8612 125.0591  1.00269013 38344
SES-9                   
1 41380U 16013A   26190.76016993 -.00000332  00000+0  00000+0 0  9993
2 41380   0.0162 327.9050 0002209 145.2687 196.4796  1.00267019 37669
EUTELSAT 65 WEST A      
1 41382U 16014A   26190.84110705 -.00000264  00000+0  00000+0 0  9995
2 41382   0.0695 312.6625 0002089 157.5803  55.1503  1.00271287 37752
IRNSS-1F                
1 41384U 16015A   26190.78921336  .00000165  00000+0  00000+0 0  9990
2 41384   5.4039  96.2682 0017393 183.5069 324.6440  1.00278591 37894
BEIDOU-2 IGSO-6         
1 41434U 16021A   26177.11016981 -.00000145  00000+0  00000+0 0  9995
2 41434  60.2385  37.9495 0057558 231.0163 137.2672  1.00258926 37578
IRNSS-1G                
1 41469U 16027A   26190.66579463 -.00000326  00000+0  00000+0 0  9994
2 41469   5.2494  96.9535 0005966   9.2807 190.7095  1.00273920 37408
JCSAT-2B                
1 41471U 16028A   26190.81323174 -.00000153  00000+0  00000+0 0  9999
2 41471   0.0183  32.9167 0000817  82.9960 258.5988  1.00269787 37352
THAICOM 8               
1 41552U 16031A   26190.76572230 -.00000109  00000+0  00000+0 0  9997
2 41552   0.0647  42.1401 0003096  30.4984 209.2152  1.00270867 36948
INTELSAT 31 (IS-31)     
1 41581U 16035A   26190.55004896 -.00000138  00000+0  00000+0 0  9990
2 41581   0.0203 274.2843 0001069   6.7163 109.4498  1.00269863 36903
BEIDOU-2 G7             
1 41586U 16037A   26190.66198130 -.00000341  00000+0  00000+0 0  9990
2 41586   1.7726  69.5133 0006074   6.8145 199.9992  1.00264599  7110
ABS-2A (MONGOLSAT-1)    
1 41588U 16038A   26190.76572230  .00000000  00000+0  00000+0 0  9992
2 41588   0.0216  21.8686 0001130  52.1405 204.0610  1.00268447 36936
EUTELSAT 117 WEST B     
1 41589U 16038B   26190.54571559  .00000001  00000+0  00000+0 0  9993
2 41589   0.0047 194.6561 0000483 271.3909 260.8989  1.00275906 36885
BRISAT                  
1 41591U 16039A   26190.18933765  .00000000  00000+0  00000+0 0  9997
2 41591   0.0181   9.7163 0001924  99.1174  36.9619  1.00270702 36838
ECHOSTAR 18             
1 41592U 16039B   26190.84188705 -.00000270  00000+0  00000+0 0  9997
2 41592   0.0027  94.7555 0001364  24.3932  50.3448  1.00271087 36856
MUOS-5                  
1 41622U 16041A   26190.61913271 -.00000101  00000+0  00000+0 0  9996
2 41622   2.1575 302.0753 0199227 260.6431 202.5771  1.00271571 37311
TIANTONG-1 1            
1 41725U 16048A   26190.01864149 -.00000306  00000+0  00000+0 0  9997
2 41725   3.8892  43.5702 0005090  55.7563 295.7516  1.00271854 36481
JCSAT-16                
1 41729U 16050A   26190.81123838 -.00000239  00000+0  00000+0 0  9990
2 41729   0.0193  32.5455 0000876  90.8261 240.3645  1.00269753 36296
USA 270                 
1 41744U 16052A   26189.45328858 -.00000339  00000+0  00000+0 0  9997
2 41744   4.2508  76.9127 0009267 101.4411  37.4334  1.00271003 28344
USA 271                 
1 41745U 16052B   26188.73473646 -.00000278  00000+0  00000+0 0  9996
2 41745   4.2217  76.9947 0010955 166.6184  44.5685  1.00271212 28124
INTELSAT 36 (IS-36)     
1 41747U 16053A   26188.80017598 -.00000012  00000+0  00000+0 0  9993
2 41747   0.0091  10.2892 0000975  27.8198 244.1989  1.00285795 36163
INSAT-3DR               
1 41752U 16054A   26190.76572230 -.00000065  00000+0  00000+0 0  9995
2 41752   0.0554  89.0522 0010561 181.4566   6.8521  1.00272040 36046
GSAT-18                 
1 41793U 16060A   26190.76572230 -.00000064  00000+0  00000+0 0  9996
2 41793   0.0209  88.6060 0005363 348.7744 199.9470  1.00271174 35751
SKY MUSTER 2 (NBN1B)    
1 41794U 16060B   26190.66882799  .00000000  00000+0  00000+0 0  9999
2 41794   0.0227  23.9157 0001367  96.5526 192.7015  1.00268632 35747
HIMAWARI-9              
1 41836U 16064A   26190.81063171  .00000000  00000+0  00000+0 0  9992
2 41836   0.0222  38.2950 0002189 137.7770 184.2635  1.00271151 35431
